<?xml version="1.0" encoding="UTF-8" standalone="no" ?>
<q:quakeml xmlns:q="http://quakeml.org/xmlns/quakeml/1.2" xmlns="http://quakeml.org/xmlns/bed/1.2" xmlns:anssevent="http://anss.org/xmlns/event/0.1" xmlns:catalog="http://anss.org/xmlns/catalog/0.1" xmlns:tensor="http://anss.org/xmlns/tensor/0.1">

  <eventParameters xmlns="http://quakeml.org/xmlns/bed/1.2" publicID="quakeml:us.anss.org/eventparameters/6000jlqa/1679495241">
    <comment>
      <text>HYDRA - us</text>
    </comment>
    <event catalog:dataid="us6000jlqa" catalog:datasource="us" catalog:eventid="6000jlqa" catalog:eventsource="us" publicID="quakeml:us.anss.org/event/6000jlqa">
      <description>
        <text>Casualties and damage included with the M7.8 event at 01:17 UTC.
</text>
        <type>felt report</type>
      </description>
      <description>
        <text>K. Maras, Turkey</text>
        <type>Flinn-Engdahl region</type>
      </description>
      <description>
        <text>6.1 km (3.8 miles) SSE of Ekinözü, Kahramanmaras, Turkey (pop. 6298)
22.0 km (13.7 miles) S of Elbistan, Kahramanmaras, Turkey (pop. 80456)
29.9 km (18.6 miles) NNW of Çaglayancerit, Kahramanmaras, Turkey (pop. 15530)
37.2 km (23.1 miles) SE of Afsin, Kahramanmaras, Turkey (pop. 39613)
53.2 km (33.1 miles) NNE of Kahramanmaras, Kahramanmaras, Turkey (pop. 376045)
</text>
        <type>nearest cities</type>
      </description>
      <focalMechanism catalog:dataid="us_6000jlqa_mww" catalog:datasource="us" publicID="quakeml:us.anss.org/focalmechanism/6000jlqa/mww">
        <waveformID channelCode="HHN" locationCode="--" networkCode="HT" stationCode="AGG" tensor:MTChanOffset="0" tensor:MTChanWaveformFit="0.89" tensor:MTChanWeight="1"/>
        <waveformID channelCode="HHE" locationCode="--" networkCode="HT" stationCode="ALN" tensor:MTChanOffset="0" tensor:MTChanWaveformFit="0.97" tensor:MTChanWeight="1"/>
        <waveformID channelCode="HHN" locationCode="--" networkCode="HT" stationCode="ALN" tensor:MTChanOffset="0" tensor:MTChanWaveformFit="0.98" tensor:MTChanWeight="1"/>
        <waveformID channelCode="BHE" locationCode="--" networkCode="MN" stationCode="AQU" tensor:MTChanOffset="0" tensor:MTChanWaveformFit="0.82" tensor:MTChanWeight="1"/>
        <waveformID channelCode="HHN" locationCode="--" networkCode="HL" stationCode="ARG" tensor:MTChanOffset="0" tensor:MTChanWaveformFit="0.85" tensor:MTChanWeight="1"/>
        <waveformID channelCode="LHN" locationCode="--" networkCode="MN" stationCode="BLY" tensor:MTChanOffset="0" tensor:MTChanWaveformFit="0.91" tensor:MTChanWeight="1"/>
        <waveformID channelCode="LHZ" locationCode="--" networkCode="MN" stationCode="BLY" tensor:MTChanOffset="0" tensor:MTChanWaveformFit="0.65" tensor:MTChanWeight="1"/>
        <waveformID channelCode="HHZ" locationCode="--" networkCode="TU" stationCode="BORA" tensor:MTChanOffset="0" tensor:MTChanWaveformFit="0.88" tensor:MTChanWeight="1"/>
        <waveformID channelCode="BHE" locationCode="--" networkCode="MN" stationCode="BZS" tensor:MTChanOffset="0" tensor:MTChanWaveformFit="0.99" tensor:MTChanWeight="1"/>
        <waveformID channelCode="BHZ" locationCode="--" networkCode="MN" stationCode="BZS" tensor:MTChanOffset="0" tensor:MTChanWaveformFit="0.93" tensor:MTChanWeight="1"/>
        <waveformID channelCode="HHE" locationCode="--" networkCode="OX" stationCode="CIMO" tensor:MTChanOffset="0" tensor:MTChanWaveformFit="0.95" tensor:MTChanWeight="1"/>
        <waveformID channelCode="HHN" locationCode="--" networkCode="OX" stationCode="CIMO" tensor:MTChanOffset="0" tensor:MTChanWaveformFit="0.99" tensor:MTChanWeight="1"/>
        <waveformID channelCode="LHE" locationCode="--" networkCode="GR" stationCode="CLL" tensor:MTChanOffset="0" tensor:MTChanWaveformFit="0.98" tensor:MTChanWeight="1"/>
        <waveformID channelCode="LHN" locationCode="--" networkCode="GR" stationCode="CLL" tensor:MTChanOffset="0" tensor:MTChanWaveformFit="0.86" tensor:MTChanWeight="1"/>
        <waveformID channelCode="LHZ" locationCode="--" networkCode="GR" stationCode="CLL" tensor:MTChanOffset="0" tensor:MTChanWaveformFit="0.87" tensor:MTChanWeight="1"/>
        <waveformID channelCode="LHN" locationCode="--" networkCode="MN" stationCode="CUC" tensor:MTChanOffset="0" tensor:MTChanWaveformFit="0.97" tensor:MTChanWeight="1"/>
        <waveformID channelCode="BHE" locationCode="--" networkCode="MN" stationCode="DIVS" tensor:MTChanOffset="0" tensor:MTChanWaveformFit="0.97" tensor:MTChanWeight="1"/>
        <waveformID channelCode="BHN" locationCode="--" networkCode="MN" stationCode="DIVS" tensor:MTChanOffset="0" tensor:MTChanWaveformFit="0.68" tensor:MTChanWeight="1"/>
        <waveformID channelCode="BHZ" locationCode="--" networkCode="MN" stationCode="DIVS" tensor:MTChanOffset="0" tensor:MTChanWaveformFit="0.84" tensor:MTChanWeight="1"/>
        <waveformID channelCode="HHE" locationCode="--" networkCode="MN" stationCode="DPC" tensor:MTChanOffset="0" tensor:MTChanWaveformFit="0.97" tensor:MTChanWeight="1"/>
        <waveformID channelCode="HHN" locationCode="--" networkCode="MN" stationCode="DPC" tensor:MTChanOffset="0" tensor:MTChanWaveformFit="0.86" tensor:MTChanWeight="1"/>
        <waveformID channelCode="HHZ" locationCode="--" networkCode="MN" stationCode="DPC" tensor:MTChanOffset="0" tensor:MTChanWaveformFit="0.99" tensor:MTChanWeight="1"/>
        <waveformID channelCode="HHE" locationCode="--" networkCode="TU" stationCode="GEVA" tensor:MTChanOffset="0" tensor:MTChanWaveformFit="0.86" tensor:MTChanWeight="1"/>
        <waveformID channelCode="LHZ" locationCode="00" networkCode="IU" stationCode="GNI" tensor:MTChanOffset="0" tensor:MTChanWaveformFit="0.94" tensor:MTChanWeight="1"/>
        <waveformID channelCode="LHE" locationCode="--" networkCode="GR" stationCode="GRA1" tensor:MTChanOffset="0" tensor:MTChanWaveformFit="0.97" tensor:MTChanWeight="1"/>
        <waveformID channelCode="LHN" locationCode="--" networkCode="GR" stationCode="GRA1" tensor:MTChanOffset="0" tensor:MTChanWaveformFit="0.92" tensor:MTChanWeight="1"/>
        <waveformID channelCode="HHZ" locationCode="--" networkCode="KO" stationCode="GURO" tensor:MTChanOffset="0" tensor:MTChanWaveformFit="0.96" tensor:MTChanWeight="1"/>
        <waveformID channelCode="HHN" locationCode="--" networkCode="HL" stationCode="ITM" tensor:MTChanOffset="0" tensor:MTChanWaveformFit="0.96" tensor:MTChanWeight="1"/>
        <waveformID channelCode="LH1" locationCode="00" networkCode="IU" stationCode="KIEV" tensor:MTChanOffset="0" tensor:MTChanWaveformFit="0.98" tensor:MTChanWeight="1"/>
        <waveformID channelCode="LH2" locationCode="00" networkCode="IU" stationCode="KIEV" tensor:MTChanOffset="0" tensor:MTChanWaveformFit="0.97" tensor:MTChanWeight="1"/>
        <waveformID channelCode="BH1" locationCode="00" networkCode="II" stationCode="KIV" tensor:MTChanOffset="0" tensor:MTChanWaveformFit="0.99" tensor:MTChanWeight="1"/>
        <waveformID channelCode="BHZ" locationCode="00" networkCode="II" stationCode="KIV" tensor:MTChanOffset="0" tensor:MTChanWaveformFit="0.96" tensor:MTChanWeight="1"/>
        <waveformID channelCode="LHZ" locationCode="00" networkCode="IU" stationCode="KONO" tensor:MTChanOffset="0" tensor:MTChanWaveformFit="0.89" tensor:MTChanWeight="1"/>
        <waveformID channelCode="HHE" locationCode="--" networkCode="HT" stationCode="LIT" tensor:MTChanOffset="0" tensor:MTChanWaveformFit="0.98" tensor:MTChanWeight="1"/>
        <waveformID channelCode="HHN" locationCode="--" networkCode="HT" stationCode="LIT" tensor:MTChanOffset="0" tensor:MTChanWaveformFit="0.99" tensor:MTChanWeight="1"/>
        <waveformID channelCode="HHZ" locationCode="--" networkCode="HT" stationCode="LIT" tensor:MTChanOffset="0" tensor:MTChanWaveformFit="0.98" tensor:MTChanWeight="1"/>
        <waveformID channelCode="LHZ" locationCode="00" networkCode="IU" stationCode="MAKZ" tensor:MTChanOffset="0" tensor:MTChanWaveformFit="0.96" tensor:MTChanWeight="1"/>
        <waveformID channelCode="LHZ" locationCode="--" networkCode="RO" stationCode="MLR" tensor:MTChanOffset="0" tensor:MTChanWaveformFit="1" tensor:MTChanWeight="1"/>
        <waveformID channelCode="LHE" locationCode="--" networkCode="CH" stationCode="MUGIO" tensor:MTChanOffset="0" tensor:MTChanWaveformFit="0.83" tensor:MTChanWeight="1"/>
        <waveformID channelCode="BHZ" locationCode="--" networkCode="IM" stationCode="NC602" tensor:MTChanOffset="0" tensor:MTChanWaveformFit="0.83" tensor:MTChanWeight="1"/>
        <waveformID channelCode="HHE" locationCode="--" networkCode="TU" stationCode="NEV" tensor:MTChanOffset="0" tensor:MTChanWaveformFit="0.75" tensor:MTChanWeight="1"/>
        <waveformID channelCode="HHZ" locationCode="--" networkCode="TU" stationCode="NEV" tensor:MTChanOffset="0" tensor:MTChanWaveformFit="0.97" tensor:MTChanWeight="1"/>
        <waveformID channelCode="BH2" locationCode="00" networkCode="II" stationCode="OBN" tensor:MTChanOffset="0" tensor:MTChanWaveformFit="0.97" tensor:MTChanWeight="1"/>
        <waveformID channelCode="LHZ" locationCode="--" networkCode="GE" stationCode="STU" tensor:MTChanOffset="0" tensor:MTChanWaveformFit="0.98" tensor:MTChanWeight="1"/>
        <waveformID channelCode="HHE" locationCode="--" networkCode="MN" stationCode="TIR" tensor:MTChanOffset="0" tensor:MTChanWaveformFit="0.97" tensor:MTChanWeight="1"/>
        <waveformID channelCode="HHN" locationCode="--" networkCode="MN" stationCode="TIR" tensor:MTChanOffset="0" tensor:MTChanWaveformFit="0.9" tensor:MTChanWeight="1"/>
        <waveformID channelCode="LHE" locationCode="--" networkCode="GE" stationCode="TIRR" tensor:MTChanOffset="0" tensor:MTChanWaveformFit="1" tensor:MTChanWeight="1"/>
        <waveformID channelCode="LHN" locationCode="--" networkCode="GE" stationCode="TIRR" tensor:MTChanOffset="0" tensor:MTChanWaveformFit="0.66" tensor:MTChanWeight="1"/>
        <waveformID channelCode="LHZ" locationCode="--" networkCode="GE" stationCode="TIRR" tensor:MTChanOffset="0" tensor:MTChanWaveformFit="0.99" tensor:MTChanWeight="1"/>
        <waveformID channelCode="HHE" locationCode="--" networkCode="MN" stationCode="TRI" tensor:MTChanOffset="0" tensor:MTChanWaveformFit="0.95" tensor:MTChanWeight="1"/>
        <waveformID channelCode="BH1" locationCode="00" networkCode="II" stationCode="UOSS" tensor:MTChanOffset="0" tensor:MTChanWaveformFit="0.77" tensor:MTChanWeight="1"/>
        <waveformID channelCode="BH2" locationCode="00" networkCode="II" stationCode="UOSS" tensor:MTChanOffset="0" tensor:MTChanWaveformFit="0.73" tensor:MTChanWeight="1"/>
        <waveformID channelCode="LHN" locationCode="--" networkCode="MN" stationCode="VSL" tensor:MTChanOffset="0" tensor:MTChanWaveformFit="0.99" tensor:MTChanWeight="1"/>
        <waveformID channelCode="LHZ" locationCode="--" networkCode="GE" stationCode="WLF" tensor:MTChanOffset="0" tensor:MTChanWaveformFit="0.98" tensor:MTChanWeight="1"/>
        <waveformID channelCode="LHN" locationCode="00" networkCode="GO" stationCode="SHNK" tensor:MTChanOffset="0" tensor:MTChanWaveformFit="0.92" tensor:MTChanWeight="1"/>
        <waveformID channelCode="HHE" locationCode="00" networkCode="QZ" stationCode="FDRN" tensor:MTChanOffset="0" tensor:MTChanWaveformFit="0.94" tensor:MTChanWeight="1"/>
        <waveformID channelCode="LHZ" locationCode="00" networkCode="AB" stationCode="HASN" tensor:MTChanOffset="0" tensor:MTChanWaveformFit="0.99" tensor:MTChanWeight="1"/>
        <waveformID channelCode="HHZ" locationCode="--" networkCode="KO" stationCode="ELL" tensor:MTChanOffset="0" tensor:MTChanWaveformFit="0.96" tensor:MTChanWeight="1"/>
        <momentTensor publicID="quakeml:us.anss.org/momenttensor/6000jlqa/mww">
          <derivedOriginID>quakeml:us.anss.org/origin/6000jlqa/mww</derivedOriginID>
          <momentMagnitudeID>quakeml:us.anss.org/magnitude/6000jlqa/mww</momentMagnitudeID>
          <scalarMoment>
            <value>2.64e+20</value>
          </scalarMoment>
          <tensor>
            <Mrr>
              <value>-8.461e+19</value>
            </Mrr>
            <Mtt>
              <value>9.656e+19</value>
            </Mtt>
            <Mpp>
              <value>-1.195e+19</value>
            </Mpp>
            <Mrt>
              <value>-5.128e+19</value>
            </Mrt>
            <Mrp>
              <value>-5.513e+19</value>
            </Mrp>
            <Mtp>
              <value>2.3574e+20</value>
            </Mtp>
          </tensor>
          <doubleCouple>0.3446</doubleCouple>
          <clvd>0.6554</clvd>
          <sourceTimeFunction>
            <type>triangle</type>
            <duration>31.5</duration>
            <riseTime>15.75</riseTime>
            <decayTime>15.75</decayTime>
          </sourceTimeFunction>
        </momentTensor>
        <triggeringOriginID>quakeml:us.anss.org/origin/6000jlqa/mww_trigger</triggeringOriginID>
        <nodalPlanes>
          <nodalPlane1>
            <strike>
              <value>277.2</value>
            </strike>
            <dip>
              <value>77.87</value>
            </dip>
            <rake>
              <value>3.5</value>
            </rake>
          </nodalPlane1>
          <nodalPlane2>
            <strike>
              <value>186.46</value>
            </strike>
            <dip>
              <value>86.57</value>
            </dip>
            <rake>
              <value>167.85</value>
            </rake>
          </nodalPlane2>
        </nodalPlanes>
        <principalAxes>
          <tAxis>
            <azimuth>
              <value>141</value>
            </azimuth>
            <plunge>
              <value>11</value>
            </plunge>
            <length>
              <value>2.9868e+20</value>
            </length>
          </tAxis>
          <pAxis>
            <azimuth>
              <value>232</value>
            </azimuth>
            <plunge>
              <value>6</value>
            </plunge>
            <length>
              <value>-2.00795e+20</value>
            </length>
          </pAxis>
          <nAxis>
            <azimuth>
              <value>351</value>
            </azimuth>
            <plunge>
              <value>77</value>
            </plunge>
            <length>
              <value>-9.78858e+19</value>
            </length>
          </nAxis>
        </principalAxes>
        <evaluationMode>manual</evaluationMode>
        <evaluationStatus>confirmed</evaluationStatus>
        <creationInfo>
          <agencyID>us</agencyID>
          <agencyURI>smi:anss.org/metadata/agencyid/us</agencyURI>
          <creationTime>2023-02-06T10:41:50Z</creationTime>
        </creationInfo>
        <tensor:waveformFit xmlns="">0.90</tensor:waveformFit>
      </focalMechanism>
      <focalMechanism catalog:dataid="us_6000jlqa_mwb" catalog:datasource="us" publicID="quakeml:us.anss.org/focalmechanism/6000jlqa/mwb">
        <waveformID channelCode="LHE" locationCode="00" networkCode="WI" stationCode="ABD" tensor:MTChanOffset="-4" tensor:MTChanWaveformFit="0.95" tensor:MTChanWeight="0.19245"/>
        <waveformID channelCode="LHZ" locationCode="00" networkCode="WI" stationCode="ABD" tensor:MTChanOffset="-6" tensor:MTChanWaveformFit="0.69" tensor:MTChanWeight="1"/>
        <waveformID channelCode="LH2" locationCode="00" networkCode="IU" stationCode="ADK" tensor:MTChanOffset="-8" tensor:MTChanWaveformFit="0.73" tensor:MTChanWeight="0.19245"/>
        <waveformID channelCode="LHE" locationCode="00" networkCode="G" stationCode="AIS" tensor:MTChanOffset="-9" tensor:MTChanWaveformFit="0.33" tensor:MTChanWeight="0.19245"/>
        <waveformID channelCode="LHZ" locationCode="00" networkCode="G" stationCode="AIS" tensor:MTChanOffset="-2" tensor:MTChanWaveformFit="0.87" tensor:MTChanWeight="1"/>
        <waveformID channelCode="LH2" locationCode="10" networkCode="II" stationCode="ASCN" tensor:MTChanOffset="-12" tensor:MTChanWaveformFit="0.85" tensor:MTChanWeight="0.19245"/>
        <waveformID channelCode="LHZ" locationCode="10" networkCode="II" stationCode="ASCN" tensor:MTChanOffset="-2" tensor:MTChanWaveformFit="0.88" tensor:MTChanWeight="1"/>
        <waveformID channelCode="LHZ" locationCode="--" networkCode="WM" stationCode="AVE" tensor:MTChanOffset="-2" tensor:MTChanWaveformFit="0.84" tensor:MTChanWeight="1"/>
        <waveformID channelCode="LH2" locationCode="00" networkCode="IU" stationCode="BBSR" tensor:MTChanOffset="-5" tensor:MTChanWaveformFit="0.9" tensor:MTChanWeight="0.19245"/>
        <waveformID channelCode="LHZ" locationCode="00" networkCode="IU" stationCode="BBSR" tensor:MTChanOffset="-5" tensor:MTChanWaveformFit="0.67" tensor:MTChanWeight="1"/>
        <waveformID channelCode="LH2" locationCode="10" networkCode="IU" stationCode="BILL" tensor:MTChanOffset="-7" tensor:MTChanWaveformFit="0.82" tensor:MTChanWeight="0.19245"/>
        <waveformID channelCode="LHE" locationCode="00" networkCode="WI" stationCode="BIM" tensor:MTChanOffset="-4" tensor:MTChanWaveformFit="0.95" tensor:MTChanWeight="0.19245"/>
        <waveformID channelCode="LHZ" locationCode="00" networkCode="WI" stationCode="BIM" tensor:MTChanOffset="-5" tensor:MTChanWaveformFit="0.75" tensor:MTChanWeight="1"/>
        <waveformID channelCode="LH2" locationCode="00" networkCode="IC" stationCode="BJT" tensor:MTChanOffset="-10" tensor:MTChanWaveformFit="0.94" tensor:MTChanWeight="0.19245"/>
        <waveformID channelCode="LHZ" locationCode="00" networkCode="IC" stationCode="BJT" tensor:MTChanOffset="-3" tensor:MTChanWaveformFit="0.81" tensor:MTChanWeight="1"/>
        <waveformID channelCode="LHE" locationCode="--" networkCode="GE" stationCode="BKB" tensor:MTChanOffset="-2" tensor:MTChanWaveformFit="0.91" tensor:MTChanWeight="0.19245"/>
        <waveformID channelCode="LHZ" locationCode="--" networkCode="GE" stationCode="BKB" tensor:MTChanOffset="-6" tensor:MTChanWaveformFit="0.58" tensor:MTChanWeight="1"/>
        <waveformID channelCode="LHE" locationCode="--" networkCode="GE" stationCode="BKNI" tensor:MTChanOffset="1" tensor:MTChanWaveformFit="0.77" tensor:MTChanWeight="0.19245"/>
        <waveformID channelCode="LHZ" locationCode="--" networkCode="GE" stationCode="BKNI" tensor:MTChanOffset="-3" tensor:MTChanWaveformFit="0.64" tensor:MTChanWeight="1"/>
        <waveformID channelCode="HHZ" locationCode="--" networkCode="CN" stationCode="BLKN" tensor:MTChanOffset="-3" tensor:MTChanWaveformFit="0.75" tensor:MTChanWeight="1"/>
        <waveformID channelCode="LHZ" locationCode="00" networkCode="II" stationCode="BORG" tensor:MTChanOffset="-3" tensor:MTChanWaveformFit="0.92" tensor:MTChanWeight="1"/>
        <waveformID channelCode="LH2" locationCode="00" networkCode="US" stationCode="CBKS" tensor:MTChanOffset="-4" tensor:MTChanWaveformFit="0.9" tensor:MTChanWeight="0.19245"/>
        <waveformID channelCode="LHZ" locationCode="00" networkCode="US" stationCode="CBKS" tensor:MTChanOffset="-3" tensor:MTChanWaveformFit="0.81" tensor:MTChanWeight="1"/>
        <waveformID channelCode="LH2" locationCode="00" networkCode="US" stationCode="CBN" tensor:MTChanOffset="-2" tensor:MTChanWaveformFit="0.65" tensor:MTChanWeight="0.19245"/>
        <waveformID channelCode="LHZ" locationCode="00" networkCode="US" stationCode="CBN" tensor:MTChanOffset="-5" tensor:MTChanWaveformFit="0.64" tensor:MTChanWeight="1"/>
        <waveformID channelCode="LH2" locationCode="00" networkCode="IU" stationCode="CHTO" tensor:MTChanOffset="-6" tensor:MTChanWaveformFit="0.96" tensor:MTChanWeight="0.19245"/>
        <waveformID channelCode="LH2" locationCode="00" networkCode="II" stationCode="COCO" tensor:MTChanOffset="0" tensor:MTChanWaveformFit="0.73" tensor:MTChanWeight="0.19245"/>
