<?xml version="1.0" encoding="UTF-8" standalone="no" ?>
<q:quakeml xmlns:q="http://quakeml.org/xmlns/quakeml/1.2" xmlns="http://quakeml.org/xmlns/bed/1.2" xmlns:anssevent="http://anss.org/xmlns/event/0.1" xmlns:catalog="http://anss.org/xmlns/catalog/0.1" xmlns:tensor="http://anss.org/xmlns/tensor/0.1">

  <eventParameters xmlns="http://quakeml.org/xmlns/bed/1.2" publicID="quakeml:us.anss.org/eventparameters/6000k20g/1680647813">
    <comment>
      <text>HYDRA - us</text>
    </comment>
    <event catalog:dataid="us6000k20g" catalog:datasource="us" catalog:eventid="6000k20g" catalog:eventsource="us" publicID="quakeml:us.anss.org/event/6000k20g">
      <description>
        <text>south of Panama</text>
        <type>Flinn-Engdahl region</type>
      </description>
      <description>
        <text>71.4 km (44.3 miles) S of Boca Chica, Chiriquí, Panama (pop. 215)
88.6 km (55.0 miles) S of Pedregal, Chiriquí, Panama (pop. 17427)
93.8 km (58.3 miles) S of Las Lomas, Chiriquí, Panama (pop. 11726)
94.1 km (58.5 miles) S of David, Chiriquí, Panama (pop. 81957)
97.2 km (60.4 miles) SE of Puerto Armuelles, Chiriquí, Panama (pop. 11743)
</text>
        <type>nearest cities</type>
      </description>
      <focalMechanism catalog:dataid="us_6000k20g_mww" catalog:datasource="us" publicID="quakeml:us.anss.org/focalmechanism/6000k20g/mww">
        <waveformID channelCode="HHE" locationCode="--" networkCode="NU" stationCode="APQN" tensor:MTChanOffset="0" tensor:MTChanWaveformFit="0.71" tensor:MTChanWeight="1"/>
        <waveformID channelCode="LH1" locationCode="00" networkCode="CU" stationCode="BCIP" tensor:MTChanOffset="0" tensor:MTChanWaveformFit="0.91" tensor:MTChanWeight="1"/>
        <waveformID channelCode="LH2" locationCode="00" networkCode="CU" stationCode="BCIP" tensor:MTChanOffset="0" tensor:MTChanWaveformFit="0.92" tensor:MTChanWeight="1"/>
        <waveformID channelCode="LHZ" locationCode="00" networkCode="CU" stationCode="BCIP" tensor:MTChanOffset="0" tensor:MTChanWaveformFit="0.99" tensor:MTChanWeight="1"/>
        <waveformID channelCode="HHN" locationCode="--" networkCode="EC" stationCode="CASC" tensor:MTChanOffset="0" tensor:MTChanWaveformFit="0.72" tensor:MTChanWeight="1"/>
        <waveformID channelCode="HHE" locationCode="--" networkCode="EC" stationCode="FLF1" tensor:MTChanOffset="0" tensor:MTChanWaveformFit="0.98" tensor:MTChanWeight="1"/>
        <waveformID channelCode="LHZ" locationCode="00" networkCode="CU" stationCode="GRTK" tensor:MTChanOffset="0" tensor:MTChanWaveformFit="0.96" tensor:MTChanWeight="1"/>
        <waveformID channelCode="LHZ" locationCode="00" networkCode="CU" stationCode="GTBY" tensor:MTChanOffset="0" tensor:MTChanWaveformFit="0.93" tensor:MTChanWeight="1"/>
        <waveformID channelCode="LHE" locationCode="00" networkCode="G" stationCode="HDC" tensor:MTChanOffset="0" tensor:MTChanWaveformFit="0.96" tensor:MTChanWeight="1"/>
        <waveformID channelCode="LHN" locationCode="00" networkCode="G" stationCode="HDC" tensor:MTChanOffset="0" tensor:MTChanWaveformFit="0.99" tensor:MTChanWeight="1"/>
        <waveformID channelCode="BHE" locationCode="00" networkCode="CM" stationCode="HEL" tensor:MTChanOffset="0" tensor:MTChanWaveformFit="0.92" tensor:MTChanWeight="1"/>
        <waveformID channelCode="BHZ" locationCode="00" networkCode="CM" stationCode="HEL" tensor:MTChanOffset="0" tensor:MTChanWaveformFit="0.96" tensor:MTChanWeight="1"/>
        <waveformID channelCode="HHE" locationCode="--" networkCode="EC" stationCode="IMBA" tensor:MTChanOffset="0" tensor:MTChanWaveformFit="0.89" tensor:MTChanWeight="1"/>
        <waveformID channelCode="HHN" locationCode="--" networkCode="EC" stationCode="IMBA" tensor:MTChanOffset="0" tensor:MTChanWaveformFit="0.94" tensor:MTChanWeight="1"/>
        <waveformID channelCode="BH2" locationCode="00" networkCode="II" stationCode="JTS" tensor:MTChanOffset="0" tensor:MTChanWaveformFit="0.94" tensor:MTChanWeight="1"/>
        <waveformID channelCode="BHZ" locationCode="00" networkCode="II" stationCode="JTS" tensor:MTChanOffset="0" tensor:MTChanWaveformFit="0.96" tensor:MTChanWeight="1"/>
        <waveformID channelCode="BHN" locationCode="--" networkCode="NU" stationCode="MGAN" tensor:MTChanOffset="0" tensor:MTChanWaveformFit="0.87" tensor:MTChanWeight="1"/>
        <waveformID channelCode="BHZ" locationCode="--" networkCode="NU" stationCode="MGAN" tensor:MTChanOffset="0" tensor:MTChanWaveformFit="0.99" tensor:MTChanWeight="1"/>
        <waveformID channelCode="LHZ" locationCode="00" networkCode="CU" stationCode="MTDJ" tensor:MTChanOffset="0" tensor:MTChanWaveformFit="0.96" tensor:MTChanWeight="1"/>
        <waveformID channelCode="HHZ" locationCode="--" networkCode="SV" stationCode="PAVA" tensor:MTChanOffset="0" tensor:MTChanWaveformFit="0.96" tensor:MTChanWeight="1"/>
        <waveformID channelCode="LHZ" locationCode="00" networkCode="IU" stationCode="PAYG" tensor:MTChanOffset="0" tensor:MTChanWaveformFit="0.85" tensor:MTChanWeight="1"/>
        <waveformID channelCode="BHZ" locationCode="--" networkCode="IM" stationCode="ROSC" tensor:MTChanOffset="0" tensor:MTChanWaveformFit="0.82" tensor:MTChanWeight="1"/>
        <waveformID channelCode="BHZ" locationCode="00" networkCode="CM" stationCode="RUS" tensor:MTChanOffset="0" tensor:MTChanWaveformFit="0.82" tensor:MTChanWeight="1"/>
        <waveformID channelCode="LHZ" locationCode="00" networkCode="CU" stationCode="SDDR" tensor:MTChanOffset="0" tensor:MTChanWaveformFit="0.94" tensor:MTChanWeight="1"/>
        <waveformID channelCode="BHE" locationCode="00" networkCode="CM" stationCode="SJC" tensor:MTChanOffset="0" tensor:MTChanWaveformFit="0.85" tensor:MTChanWeight="1"/>
        <waveformID channelCode="BHZ" locationCode="00" networkCode="CM" stationCode="SJC" tensor:MTChanOffset="0" tensor:MTChanWaveformFit="0.98" tensor:MTChanWeight="1"/>
        <waveformID channelCode="HHN" locationCode="--" networkCode="EC" stationCode="SLOR" tensor:MTChanOffset="0" tensor:MTChanWaveformFit="0.98" tensor:MTChanWeight="1"/>
        <waveformID channelCode="HHZ" locationCode="--" networkCode="EC" stationCode="SLOR" tensor:MTChanOffset="0" tensor:MTChanWaveformFit="0.93" tensor:MTChanWeight="1"/>
        <waveformID channelCode="BHE" locationCode="00" networkCode="CM" stationCode="SMAR" tensor:MTChanOffset="0" tensor:MTChanWaveformFit="0.84" tensor:MTChanWeight="1"/>
        <waveformID channelCode="BHN" locationCode="00" networkCode="CM" stationCode="SMAR" tensor:MTChanOffset="0" tensor:MTChanWaveformFit="0.93" tensor:MTChanWeight="1"/>
        <waveformID channelCode="BHZ" locationCode="00" networkCode="CM" stationCode="SMAR" tensor:MTChanOffset="0" tensor:MTChanWaveformFit="0.98" tensor:MTChanWeight="1"/>
        <waveformID channelCode="HHZ" locationCode="--" networkCode="EC" stationCode="TULM" tensor:MTChanOffset="0" tensor:MTChanWaveformFit="0.97" tensor:MTChanWeight="1"/>
        <waveformID channelCode="BHZ" locationCode="00" networkCode="CM" stationCode="URI" tensor:MTChanOffset="0" tensor:MTChanWaveformFit="0.89" tensor:MTChanWeight="1"/>
        <waveformID channelCode="HHZ" locationCode="10" networkCode="NU" stationCode="RIBN" tensor:MTChanOffset="0" tensor:MTChanWaveformFit="0.99" tensor:MTChanWeight="1"/>
        <waveformID channelCode="HHN" locationCode="--" networkCode="OV" stationCode="VRBA" tensor:MTChanOffset="0" tensor:MTChanWaveformFit="0.91" tensor:MTChanWeight="1"/>
        <waveformID channelCode="HHZ" locationCode="00" networkCode="PR" stationCode="CRPR" tensor:MTChanOffset="0" tensor:MTChanWaveformFit="0.87" tensor:MTChanWeight="1"/>
        <waveformID channelCode="HHZ" locationCode="--" networkCode="EC" stationCode="SNLR" tensor:MTChanOffset="0" tensor:MTChanWaveformFit="0.95" tensor:MTChanWeight="1"/>
        <momentTensor publicID="quakeml:us.anss.org/momenttensor/6000k20g/mww">
          <derivedOriginID>quakeml:us.anss.org/origin/6000k20g/mww</derivedOriginID>
          <momentMagnitudeID>quakeml:us.anss.org/magnitude/6000k20g/mww</momentMagnitudeID>
          <scalarMoment>
            <value>3.97e+18</value>
          </scalarMoment>
          <tensor>
            <Mrr>
              <value>1.39e+16</value>
            </Mrr>
            <Mtt>
              <value>-6.676e+17</value>
            </Mtt>
            <Mpp>
              <value>6.537e+17</value>
            </Mpp>
            <Mrt>
              <value>3.088e+17</value>
            </Mrt>
            <Mrp>
              <value>2.517e+17</value>
            </Mrp>
            <Mtp>
              <value>3.8952e+18</value>
            </Mtp>
          </tensor>
          <doubleCouple>0.9883</doubleCouple>
          <clvd>0.0117</clvd>
          <sourceTimeFunction>
            <type>triangle</type>
            <duration>7.64</duration>
            <riseTime>3.82</riseTime>
            <decayTime>3.82</decayTime>
          </sourceTimeFunction>
        </momentTensor>
        <triggeringOriginID>quakeml:us.anss.org/origin/6000k20g/mww_trigger</triggeringOriginID>
        <nodalPlanes>
          <nodalPlane1>
            <strike>
              <value>355.05</value>
            </strike>
            <dip>
              <value>85.26</value>
            </dip>
            <rake>
              <value>176.76</value>
            </rake>
          </nodalPlane1>
          <nodalPlane2>
            <strike>
              <value>85.32</value>
            </strike>
            <dip>
              <value>86.77</value>
            </dip>
            <rake>
              <value>4.74</value>
            </rake>
          </nodalPlane2>
        </nodalPlanes>
        <principalAxes>
          <tAxis>
            <azimuth>
              <value>310</value>
            </azimuth>
            <plunge>
              <value>6</value>
            </plunge>
            <length>
              <value>3.98252e+18</value>
            </length>
          </tAxis>
          <pAxis>
            <azimuth>
              <value>220</value>
            </azimuth>
            <plunge>
              <value>1</value>
            </plunge>
            <length>
              <value>-3.95914e+18</value>
            </length>
          </pAxis>
          <nAxis>
            <azimuth>
              <value>119</value>
            </azimuth>
            <plunge>
              <value>84</value>
            </plunge>
            <length>
              <value>-2.33713e+16</value>
            </length>
          </nAxis>
        </principalAxes>
        <evaluationMode>manual</evaluationMode>
        <evaluationStatus>preliminary</evaluationStatus>
        <creationInfo>
          <agencyID>us</agencyID>
          <agencyURI>smi:anss.org/metadata/agencyid/us</agencyURI>
          <creationTime>2023-04-04T22:33:32Z</creationTime>
        </creationInfo>
        <tensor:waveformFit xmlns="">0.93</tensor:waveformFit>
      </focalMechanism>
      <amplitude publicID="quakeml:us.anss.org/amp/n4_060a_hhz_00/mb">
        <genericAmplitude>
          <value>8.275e-07</value>
        </genericAmplitude>
        <type>AMB</type>
        <unit>m</unit>
        <period>
          <value>0.9800</value>
        </period>
        <timeWindow>
          <begin>0.00</begin>
          <end>32.25</end>
          <reference>2023-04-04T22:22:20.9Z</reference>
        </timeWindow>
        <waveformID channelCode="HHZ" locationCode="00" networkCode="N4" stationCode="060A"/>
        <scalingTime>
          <value>2023-04-04T22:22:48.49Z</value>
        </scalingTime>
        <magnitudeHint>mb</magnitudeHint>
        <evaluationMode>automatic</evaluationMode>
      </amplitude>
      <amplitude publicID="quakeml:us.anss.org/amp/n4_061z_hhz_00/mb">
        <genericAmplitude>
          <value>9.055e-07</value>
        </genericAmplitude>
        <type>AMB</type>
        <unit>m</unit>
        <period>
          <value>0.9800</value>
        </period>
        <timeWindow>
          <begin>0.00</begin>
          <end>30.99</end>
          <reference>2023-04-04T22:22:05.63Z</reference>
        </timeWindow>
        <waveformID channelCode="HHZ" locationCode="00" networkCode="N4" stationCode="061Z"/>
        <scalingTime>
          <value>2023-04-04T22:22:35.01Z</value>
        </scalingTime>
        <magnitudeHint>mb</magnitudeHint>
        <evaluationMode>automatic</evaluationMode>
      </amplitude>
      <amplitude publicID="quakeml:us.anss.org/amp/n4_143b_hhz_00/mb">
        <genericAmplitude>
          <value>9.8985e-07</value>
        </genericAmplitude>
        <type>AMB</type>
        <unit>m</unit>
        <period>
          <value>1.3600</value>
        </period>
        <timeWindow>
          <begin>0.00</begin>
          <end>59.86</end>
          <reference>2023-04-04T22:23:28.61Z</reference>
        </timeWindow>
        <waveformID channelCode="HHZ" locationCode="00" networkCode="N4" stationCode="143B"/>
        <scalingTime>
          <value>2023-04-04T22:24:13.73Z</value>
        </scalingTime>
        <magnitudeHint>mb</magnitudeHint>
        <evaluationMode>automatic</evaluationMode>
      </amplitude>
      <amplitude publicID="quakeml:us.anss.org/amp/n4_146b_hhz_00/mb">
        <genericAmplitude>
          <value>1.61995e-06</value>
        </genericAmplitude>
        <type>AMB</type>
        <unit>m</unit>
        <period>
          <value>1.0000</value>
        </period>
        <timeWindow>
          <begin>0.00</begin>
          <end>55.88</end>
          <reference>2023-04-04T22:23:23.34Z</reference>
        </timeWindow>
        <waveformID channelCode="HHZ" locationCode="00" networkCode="N4" stationCode="146B"/>
        <scalingTime>
          <value>2023-04-04T22:23:47.06Z</value>
        </scalingTime>
        <magnitudeHint>mb</magnitudeHint>
        <evaluationMode>automatic</evaluationMode>
      </amplitude>
      <amplitude publicID="quakeml:us.anss.org/amp/n4_152a_hhz_00/mb">
        <genericAmplitude>
          <value>3.162e-07</value>
        </genericAmplitude>
        <type>AMB</type>
        <unit>m</unit>
        <period>
          <value>0.7000</value>
        </period>
        <timeWindow>
          <begin>0.00</begin>
          <end>52.92</end>
          <reference>2023-04-04T22:23:17.55Z</reference>
        </timeWindow>
        <waveformID channelCode="HHZ" locationCode="00" networkCode="N4" stationCode="152A"/>
        <scalingTime>
          <value>2023-04-04T22:23:40.76Z</value>
        </scalingTime>
        <magnitudeHint>mb</magnitudeHint>
        <evaluationMode>automatic</evaluationMode>
      </amplitude>
      <amplitude publicID="quakeml:us.anss.org/amp/n4_154a_hhz_00/mb">
        <genericAmplitude>
          <value>1.53825e-06</value>
        </genericAmplitude>
        <type>AMB</type>
        <unit>m</unit>
        <period>
          <value>0.9000</value>
        </period>
        <timeWindow>
          <begin>0.00</begin>
          <end>52.47</end>
          <reference>2023-04-04T22:23:16.05Z</reference>
        </timeWindow>
        <waveformID channelCode="HHZ" locationCode="00" networkCode="N4" stationCode="154A"/>
        <scalingTime>
          <value>2023-04-04T22:23:51.87Z</value>
        </scalingTime>
        <magnitudeHint>mb</magnitudeHint>
        <evaluationMode>automatic</evaluationMode>
      </amplitude>
      <amplitude publicID="quakeml:us.anss.org/amp/tx_237b_bhz_--/mb">
        <genericAmplitude>
          <value>1.5869e-06</value>
        </genericAmplitude>
        <type>AMB</type>
        <unit>m</unit>
        <period>
          <value>1.3000</value>
        </period>
        <timeWindow>
          <begin>0.00</begin>
          <end>64.09</end>
          <reference>2023-04-04T22:23:37.62Z</reference>
        </timeWindow>
        <waveformID channelCode="BHZ" locationCode="--" networkCode="TX" stationCode="237B"/>
        <scalingTime>
          <value>2023-04-04T22:24:14.42Z</value>
        </scalingTime>
        <magnitudeHint>mb</magnitudeHint>
        <evaluationMode>automatic</evaluationMode>
      </amplitude>
      <amplitude publicID="quakeml:us.anss.org/amp/n4_250a_hhz_00/mb">
        <genericAmplitude>
          <value>2.8548e-06</value>
        </genericAmplitude>
        <type>AMB</type>
        <unit>m</unit>
        <period>
          <value>1.7600</value>
        </period>
        <timeWindow>
          <begin>0.00</begin>
          <end>50.18</end>
          <reference>2023-04-04T22:23:13.29Z</reference>
        </timeWindow>
        <waveformID channelCode="HHZ" locationCode="00" networkCode="N4" stationCode="250A"/>
        <scalingTime>
          <value>2023-04-04T22:24:00.08Z</value>
        </scalingTime>
        <magnitudeHint>mb</magnitudeHint>
        <evaluationMode>automatic</evaluationMode>
      </amplitude>
      <amplitude publicID="quakeml:us.anss.org/amp/n4_257a_hhz_00/mb">
        <genericAmplitude>
          <value>3.49695e-06</value>
        </genericAmplitude>
        <type>AMB</type>
        <unit>m</unit>
        <period>
          <value>1.8600</value>
        </period>
        <timeWindow>
          <begin>0.00</begin>
          <end>48.58</end>
          <reference>2023-04-04T22:23:11.52Z</reference>
        </timeWindow>
        <waveformID channelCode="HHZ" locationCode="00" networkCode="N4" stationCode="257A"/>
        <scalingTime>
          <value>2023-04-04T22:23:48.45Z</value>
        </scalingTime>
        <magnitudeHint>mb</magnitudeHint>
        <evaluationMode>automatic</evaluationMode>
      </amplitude>
      <amplitude publicID="quakeml:us.anss.org/amp/ae_319a_hhz_--/mb">
        <genericAmplitude>
          <value>5.06295e-06</value>
        </genericAmplitude>
        <type>AMB</type>
        <unit>m</unit>
        <period>
          <value>1.1000</value>
        </period>
        <timeWindow>
          <begin>0.00</begin>
          <end>95.78</end>
          <reference>2023-04-04T22:24:43.27Z</reference>
        </timeWindow>
        <waveformID channelCode="HHZ" locationCode="--" networkCode="AE" stationCode="319A"/>
        <scalingTime>
          <value>2023-04-04T22:25:06.08Z</value>
        </scalingTime>
        <magnitudeHint>mb</magnitudeHint>
        <evaluationMode>automatic</evaluationMode>
      </amplitude>
      <amplitude publicID="quakeml:us.anss.org/amp/n4_346b_hhz_00/mb">
        <genericAmplitude>
          <value>3.6605e-07</value>
        </genericAmplitude>
        <type>AMB</type>
        <unit>m</unit>
        <period>
          <value>0.7600</value>
        </period>
        <timeWindow>
          <begin>0.00</begin>
          <end>50.26</end>
          <reference>2023-04-04T22:23:13.95Z</reference>
        </timeWindow>
        <waveformID channelCode="HHZ" locationCode="00" networkCode="N4" stationCode="346B"/>
        <scalingTime>
          <value>2023-04-04T22:23:34.94Z</value>
        </scalingTime>
        <magnitudeHint>mb</magnitudeHint>
        <evaluationMode>automatic</evaluationMode>
      </amplitude>
      <amplitude publicID="quakeml:us.anss.org/amp/n4_352a_hhz_00/mb">
        <genericAmplitude>
          <value>2.109e-06</value>
        </genericAmplitude>
        <type>AMB</type>
        <unit>m</unit>
        <period>
          <value>1.2400</value>
        </period>
        <timeWindow>
          <begin>0.00</begin>
          <end>47.67</end>
          <reference>2023-04-04T22:23:06.93Z</reference>
        </timeWindow>
        <waveformID channelCode="HHZ" locationCode="00" networkCode="N4" stationCode="352A"/>
        <scalingTime>
          <value>2023-04-04T22:23:51.43Z</value>
        </scalingTime>
