<?xml version="1.0" encoding="UTF-8" standalone="no" ?>
<q:quakeml xmlns:q="http://quakeml.org/xmlns/quakeml/1.2" xmlns="http://quakeml.org/xmlns/bed/1.2" xmlns:anssevent="http://anss.org/xmlns/event/0.1" xmlns:catalog="http://anss.org/xmlns/catalog/0.1" xmlns:tensor="http://anss.org/xmlns/tensor/0.1">

  <eventParameters xmlns="http://quakeml.org/xmlns/bed/1.2" publicID="quakeml:us.anss.org/eventparameters/6000k3cj/1681163008">
    <comment>
      <text>HYDRA - us</text>
    </comment>
    <event catalog:dataid="us6000k3cj" catalog:datasource="us" catalog:eventid="6000k3cj" catalog:eventsource="us" publicID="quakeml:us.anss.org/event/6000k3cj">
      <description>
        <text>Southern Highlands, Papua New Guinea</text>
        <type>Flinn-Engdahl region</type>
      </description>
      <description>
        <text>60.2 km (37.4 miles) SSW of Tari, Hela, Papua New Guinea (pop. 8186)
104.3 km (64.8 miles) WSW of Mendi, Southern Highlands, Papua New Guinea (pop. 26252)
161.8 km (100.5 miles) E of Kiunga, Western Province, Papua New Guinea (pop. 11536)
174.1 km (108.2 miles) WSW of Mount Hagen, Western Highlands, Papua New Guinea (pop. 33623)
294.9 km (183.2 miles) W of Goroka, Eastern Highlands, Papua New Guinea (pop. 18503)
</text>
        <type>nearest cities</type>
      </description>
      <amplitude publicID="quakeml:us.anss.org/amp/ii_aak_bhz_10/mb">
        <genericAmplitude>
          <value>1.045e-08</value>
        </genericAmplitude>
        <type>AMB</type>
        <unit>m</unit>
        <period>
          <value>1.2500</value>
        </period>
        <timeWindow>
          <begin>0.00</begin>
          <end>50.00</end>
          <reference>2023-04-10T21:24:57.79Z</reference>
        </timeWindow>
        <pickID>quakeml:us.anss.org/pick/6000k3cj/us_a2371_bpid-6003377826</pickID>
        <waveformID channelCode="BHZ" locationCode="10" networkCode="II" stationCode="AAK"/>
        <scalingTime>
          <value>2023-04-10T21:25:20.065Z</value>
        </scalingTime>
        <magnitudeHint>mb</magnitudeHint>
        <evaluationMode>automatic</evaluationMode>
      </amplitude>
      <amplitude publicID="quakeml:us.anss.org/amp/im_abk31_bhz_--/mb">
        <genericAmplitude>
          <value>3.7e-09</value>
        </genericAmplitude>
        <type>AMB</type>
        <unit>m</unit>
        <period>
          <value>0.9000</value>
        </period>
        <timeWindow>
          <begin>0.00</begin>
          <end>50.00</end>
          <reference>2023-04-10T21:25:54.5Z</reference>
        </timeWindow>
        <waveformID channelCode="BHZ" locationCode="--" networkCode="IM" stationCode="ABK31"/>
        <scalingTime>
          <value>2023-04-10T21:26:15.825Z</value>
        </scalingTime>
        <magnitudeHint>mb</magnitudeHint>
        <evaluationMode>automatic</evaluationMode>
      </amplitude>
      <amplitude publicID="quakeml:us.anss.org/amp/ak_anm_bhz_--/mb">
        <genericAmplitude>
          <value>2.565e-08</value>
        </genericAmplitude>
        <type>AMB</type>
        <unit>m</unit>
        <period>
          <value>1.3600</value>
        </period>
        <timeWindow>
          <begin>0.00</begin>
          <end>50.00</end>
          <reference>2023-04-10T21:25:07.12Z</reference>
        </timeWindow>
        <waveformID channelCode="BHZ" locationCode="--" networkCode="AK" stationCode="ANM"/>
        <scalingTime>
          <value>2023-04-10T21:25:28.68Z</value>
        </scalingTime>
        <magnitudeHint>mb</magnitudeHint>
        <evaluationMode>automatic</evaluationMode>
      </amplitude>
      <amplitude publicID="quakeml:us.anss.org/amp/kr_arsb_hhz_00/mb">
        <genericAmplitude>
          <value>8.2e-09</value>
        </genericAmplitude>
        <type>AMB</type>
        <unit>m</unit>
        <period>
          <value>0.7600</value>
        </period>
        <timeWindow>
          <begin>0.00</begin>
          <end>50.00</end>
          <reference>2023-04-10T21:25:02.48Z</reference>
        </timeWindow>
        <waveformID channelCode="HHZ" locationCode="00" networkCode="KR" stationCode="ARSB"/>
        <scalingTime>
          <value>2023-04-10T21:25:23.08Z</value>
        </scalingTime>
        <magnitudeHint>mb</magnitudeHint>
        <evaluationMode>automatic</evaluationMode>
      </amplitude>
      <amplitude publicID="quakeml:us.anss.org/amp/ii_arti_bhz_00/mb">
        <genericAmplitude>
          <value>1.645e-08</value>
        </genericAmplitude>
        <type>AMB</type>
        <unit>m</unit>
        <period>
          <value>1.0000</value>
        </period>
        <timeWindow>
          <begin>0.00</begin>
          <end>50.00</end>
          <reference>2023-04-10T21:26:03.41Z</reference>
        </timeWindow>
        <pickID>quakeml:us.anss.org/pick/6000k3cj/us_a2371_bpid-6003377856</pickID>
        <waveformID channelCode="BHZ" locationCode="00" networkCode="II" stationCode="ARTI"/>
        <scalingTime>
          <value>2023-04-10T21:26:24.71Z</value>
        </scalingTime>
        <magnitudeHint>mb</magnitudeHint>
        <evaluationMode>automatic</evaluationMode>
      </amplitude>
      <amplitude publicID="quakeml:us.anss.org/amp/ak_barn_bhz_--/mb">
        <genericAmplitude>
          <value>2.86e-08</value>
        </genericAmplitude>
        <type>AMB</type>
        <unit>m</unit>
        <period>
          <value>0.6400</value>
        </period>
        <timeWindow>
          <begin>0.00</begin>
          <end>50.00</end>
          <reference>2023-04-10T21:25:48.9Z</reference>
        </timeWindow>
        <pickID>quakeml:us.anss.org/pick/6000k3cj/us_a2371_bpid-6003377887</pickID>
        <waveformID channelCode="BHZ" locationCode="--" networkCode="AK" stationCode="BARN"/>
        <scalingTime>
          <value>2023-04-10T21:26:09.7Z</value>
        </scalingTime>
        <magnitudeHint>mb</magnitudeHint>
        <evaluationMode>automatic</evaluationMode>
      </amplitude>
      <amplitude publicID="quakeml:us.anss.org/amp/ge_bbji_bhz_--/mb">
        <genericAmplitude>
          <value>1.45e-08</value>
        </genericAmplitude>
        <type>AMB</type>
        <unit>m</unit>
        <period>
          <value>0.7000</value>
        </period>
        <timeWindow>
          <begin>0.00</begin>
          <end>50.00</end>
          <reference>2023-04-10T21:19:46.5Z</reference>
        </timeWindow>
        <pickID>quakeml:us.anss.org/pick/6000k3cj/us_a2371_bpid-6003377838</pickID>
        <waveformID channelCode="BHZ" locationCode="--" networkCode="GE" stationCode="BBJI"/>
        <scalingTime>
          <value>2023-04-10T21:20:16Z</value>
        </scalingTime>
        <magnitudeHint>mb</magnitudeHint>
        <evaluationMode>automatic</evaluationMode>
      </amplitude>
      <amplitude publicID="quakeml:us.anss.org/amp/ak_bmr_bhz_--/mb">
        <genericAmplitude>
          <value>1.65e-08</value>
        </genericAmplitude>
        <type>AMB</type>
        <unit>m</unit>
        <period>
          <value>0.9600</value>
        </period>
        <timeWindow>
          <begin>0.00</begin>
          <end>50.00</end>
          <reference>2023-04-10T21:25:41.43Z</reference>
        </timeWindow>
        <waveformID channelCode="BHZ" locationCode="--" networkCode="AK" stationCode="BMR"/>
        <scalingTime>
          <value>2023-04-10T21:26:02.87Z</value>
        </scalingTime>
        <magnitudeHint>mb</magnitudeHint>
        <evaluationMode>automatic</evaluationMode>
      </amplitude>
      <amplitude publicID="quakeml:us.anss.org/amp/kr_boom_bhz_--/mb">
        <genericAmplitude>
          <value>3.045e-08</value>
        </genericAmplitude>
        <type>AMB</type>
        <unit>m</unit>
        <period>
          <value>1.4800</value>
        </period>
        <timeWindow>
          <begin>0.00</begin>
          <end>50.00</end>
          <reference>2023-04-10T21:24:53.39Z</reference>
        </timeWindow>
        <waveformID channelCode="BHZ" locationCode="--" networkCode="KR" stationCode="BOOM"/>
        <scalingTime>
          <value>2023-04-10T21:25:34.53Z</value>
        </scalingTime>
        <magnitudeHint>mb</magnitudeHint>
        <evaluationMode>automatic</evaluationMode>
      </amplitude>
      <amplitude publicID="quakeml:us.anss.org/amp/ak_c19k_bhz_--/mb">
        <genericAmplitude>
          <value>1.88e-08</value>
        </genericAmplitude>
        <type>AMB</type>
        <unit>m</unit>
        <period>
          <value>0.8400</value>
        </period>
        <timeWindow>
          <begin>0.00</begin>
          <end>50.00</end>
          <reference>2023-04-10T21:25:30.7Z</reference>
        </timeWindow>
        <waveformID channelCode="BHZ" locationCode="--" networkCode="AK" stationCode="C19K"/>
        <scalingTime>
          <value>2023-04-10T21:25:52.52Z</value>
        </scalingTime>
        <magnitudeHint>mb</magnitudeHint>
        <evaluationMode>automatic</evaluationMode>
      </amplitude>
      <amplitude publicID="quakeml:us.anss.org/amp/ak_c23k_bhz_--/mb">
        <genericAmplitude>
          <value>4.42e-08</value>
        </genericAmplitude>
        <type>AMB</type>
        <unit>m</unit>
        <period>
          <value>0.8800</value>
        </period>
        <timeWindow>
          <begin>0.00</begin>
          <end>50.00</end>
          <reference>2023-04-10T21:25:45.98Z</reference>
        </timeWindow>
        <waveformID channelCode="BHZ" locationCode="--" networkCode="AK" stationCode="C23K"/>
        <scalingTime>
          <value>2023-04-10T21:26:07.16Z</value>
        </scalingTime>
        <magnitudeHint>mb</magnitudeHint>
        <evaluationMode>automatic</evaluationMode>
      </amplitude>
      <amplitude publicID="quakeml:us.anss.org/amp/ak_c27k_bhz_--/mb">
        <genericAmplitude>
          <value>5.6e-09</value>
        </genericAmplitude>
        <type>AMB</type>
        <unit>m</unit>
        <period>
          <value>0.6800</value>
        </period>
        <timeWindow>
          <begin>0.00</begin>
          <end>50.00</end>
          <reference>2023-04-10T21:25:56.33Z</reference>
        </timeWindow>
        <waveformID channelCode="BHZ" locationCode="--" networkCode="AK" stationCode="C27K"/>
        <scalingTime>
          <value>2023-04-10T21:26:18.49Z</value>
        </scalingTime>
        <magnitudeHint>mb</magnitudeHint>
        <evaluationMode>automatic</evaluationMode>
      </amplitude>
      <amplitude publicID="quakeml:us.anss.org/amp/ak_cast_bhz_--/mb">
        <genericAmplitude>
          <value>1.21e-08</value>
        </genericAmplitude>
        <type>AMB</type>
        <unit>m</unit>
        <period>
          <value>0.8400</value>
        </period>
        <timeWindow>
          <begin>0.00</begin>
          <end>50.00</end>
          <reference>2023-04-10T21:25:29.06Z</reference>
        </timeWindow>
        <waveformID channelCode="BHZ" locationCode="--" networkCode="AK" stationCode="CAST"/>
        <scalingTime>
          <value>2023-04-10T21:25:50.26Z</value>
        </scalingTime>
        <magnitudeHint>mb</magnitudeHint>
        <evaluationMode>automatic</evaluationMode>
      </amplitude>
      <amplitude publicID="quakeml:us.anss.org/amp/iu_casy_bhz_10/mb">
        <genericAmplitude>
          <value>1.935e-08</value>
        </genericAmplitude>
        <type>AMB</type>
        <unit>m</unit>
        <period>
          <value>0.8500</value>
        </period>
        <timeWindow>
          <begin>0.00</begin>
          <end>50.00</end>
          <reference>2023-04-10T21:23:28.03Z</reference>
        </timeWindow>
        <pickID>quakeml:us.anss.org/pick/6000k3cj/us_a2371_bpid-6003377797</pickID>
        <waveformID channelCode="BHZ" locationCode="10" networkCode="IU" stationCode="CASY"/>
        <scalingTime>
          <value>2023-04-10T21:23:55.33Z</value>
        </scalingTime>
        <magnitudeHint>mb</magnitudeHint>
        <evaluationMode>automatic</evaluationMode>
      </amplitude>
      <amplitude publicID="quakeml:us.anss.org/amp/ak_ccb_bhz_--/mb">
        <genericAmplitude>
          <value>1.805e-08</value>
        </genericAmplitude>
        <type>AMB</type>
        <unit>m</unit>
        <period>
          <value>0.8000</value>
        </period>
        <timeWindow>
          <begin>0.00</begin>
          <end>50.00</end>
          <reference>2023-04-10T21:25:39.13Z</reference>
        </timeWindow>
        <waveformID channelCode="BHZ" locationCode="--" networkCode="AK" stationCode="CCB"/>
        <scalingTime>
          <value>2023-04-10T21:26:00.41Z</value>
        </scalingTime>
        <magnitudeHint>mb</magnitudeHint>
        <evaluationMode>automatic</evaluationMode>
      </amplitude>
      <amplitude publicID="quakeml:us.anss.org/amp/au_cmsa_bhz_--/mb">
        <genericAmplitude>
          <value>1.725e-08</value>
        </genericAmplitude>
        <type>AMB</type>
        <unit>m</unit>
        <period>
          <value>1.1500</value>
        </period>
        <timeWindow>
          <begin>0.00</begin>
          <end>50.00</end>
          <reference>2023-04-10T21:18:21.5Z</reference>
        </timeWindow>
        <pickID>quakeml:us.anss.org/pick/6000k3cj/us_a2371_bpid-6003377737</pickID>
        <waveformID channelCode="BHZ" locationCode="--" networkCode="AU" stationCode="CMSA"/>
        <scalingTime>
          <value>2023-04-10T21:18:49.6Z</value>
        </scalingTime>
        <magnitudeHint>mb</magnitudeHint>
        <evaluationMode>automatic</evaluationMode>
      </amplitude>
      <amplitude publicID="quakeml:us.anss.org/amp/ak_cnp_bhz_--/mb">
        <genericAmplitude>
          <value>2.045e-08</value>
        </genericAmplitude>
        <type>AMB</type>
        <unit>m</unit>
        <period>
          <value>0.8800</value>
        </period>
        <timeWindow>
          <begin>0.00</begin>
          <end>50.00</end>
          <reference>2023-04-10T21:25:22.8Z</reference>
        </timeWindow>
        <waveformID channelCode="BHZ" locationCode="--" networkCode="AK" stationCode="CNP"/>
        <scalingTime>
          <value>2023-04-10T21:25:44.04Z</value>
        </scalingTime>
        <magnitudeHint>mb</magnitudeHint>
        <evaluationMode>automatic</evaluationMode>
      </amplitude>
      <amplitude publicID="quakeml:us.anss.org/amp/iu_cola_bhz_00/mb">
        <genericAmplitude>
          <value>9.35e-09</value>
        </genericAmplitude>
        <type>AMB</type>
        <unit>m</unit>
        <period>
          <value>0.6500</value>
        </period>
        <timeWindow>
          <begin>0.00</begin>
          <end>50.00</end>
          <reference>2023-04-10T21:25:40.22Z</reference>
        </timeWindow>
        <pickID>quakeml:us.anss.org/pick/6000k3cj/us_a2371_bpid-6003377830</pickID>
        <waveformID channelCode="BHZ" locationCode="00" networkCode="IU" stationCode="COLA"/>
        <scalingTime>
          <value>2023-04-10T21:26:01.095Z</value>
        </scalingTime>
        <magnitudeHint>mb</magnitudeHint>
        <evaluationMode>automatic</evaluationMode>
      </amplitude>
      <amplitude publicID="quakeml:us.anss.org/amp/ak_cold_bhz_--/mb">
        <genericAmplitude>
          <value>6.95e-09</value>
        </genericAmplitude>
        <type>AMB</type>
        <unit>m</unit>
        <period>
          <value>0.7200</value>
        </period>
        <timeWindow>
          <begin>0.00</begin>
          <end>50.00</end>
          <reference>2023-04-10T21:25:41.53Z</reference>
        </timeWindow>
        <waveformID channelCode="BHZ" locationCode="--" networkCode="AK" stationCode="COLD"/>
        <scalingTime>
          <value>2023-04-10T21:26:02.19Z</value>
        </scalingTime>
        <magnitudeHint>mb</magnitudeHint>
        <evaluationMode>automatic</evaluationMode>
      </amplitude>
      <amplitude publicID="quakeml:us.anss.org/amp/ak_crq_bhz_--/mb">
        <genericAmplitude>
          <value>3.125e-08</value>
        </genericAmplitude>
        <type>AMB</type>
        <unit>m</unit>
        <period>
          <value>0.8400</value>
        </period>
        <timeWindow>
          <begin>0.00</begin>
          <end>50.00</end>
          <reference>2023-04-10T21:25:44.66Z</reference>
        </timeWindow>
        <waveformID channelCode="BHZ" locationCode="--" networkCode="AK" stationCode="CRQ"/>
        <scalingTime>
          <value>2023-04-10T21:26:05.76Z</value>
        </scalingTime>
        <magnitudeHint>mb</magnitudeHint>
        <evaluationMode>automatic</evaluationMode>
      </amplitude>
      <amplitude publicID="quakeml:us.anss.org/amp/cn_dawy_hhz_--/mb">
        <genericAmplitude>
          <value>1.035e-08</value>
        </genericAmplitude>
        <type>AMB</type>
        <unit>m</unit>
        <period>
          <value>0.8200</value>
        </period>
        <timeWindow>
          <begin>0.00</begin>
          <end>50.00</end>
          <reference>2023-04-10T21:25:56.49Z</reference>
        </timeWindow>
        <waveformID channelCode="HHZ" locationCode="--" networkCode="CN" stationCode="DAWY"/>
        <scalingTime>
          <value>2023-04-10T21:26:17.8Z</value>
        </scalingTime>
        <magnitudeHint>mb</magnitudeHint>
        <evaluationMode>automatic</evaluationMode>
      </amplitude>
      <amplitude publicID="quakeml:us.anss.org/amp/ak_dhy_bhz_--/mb">
        <genericAmplitude>
          <value>1.67e-08</value>
        </genericAmplitude>
        <type>AMB</type>
        <unit>m</unit>
        <period>
          <value>0.7200</value>
        </period>
        <timeWindow>
          <begin>0.00</begin>
          <end>50.00</end>
          <reference>2023-04-10T21:25:38.42Z</reference>
        </timeWindow>
        <waveformID channelCode="BHZ" locationCode="--" networkCode="AK" stationCode="DHY"/>
        <scalingTime>
          <value>2023-04-10T21:25:59.72Z</value>
        </scalingTime>
        <magnitudeHint>mb</magnitudeHint>
        <evaluationMode>automatic</evaluationMode>
      </amplitude>
      <amplitude publicID="quakeml:us.anss.org/amp/ak_div_bhz_--/mb">
        <genericAmplitude>
          <value>2.015e-08</value>
        </genericAmplitude>
        <type>AMB</type>
        <unit>m</unit>
        <period>
          <value>0.7600</value>
        </period>
        <timeWindow>
          <begin>0.00</begin>
          <end>50.00</end>
          <reference>2023-04-10T21:25:39.09Z</reference>
        </timeWindow>
        <waveformID channelCode="BHZ" locationCode="--" networkCode="AK" stationCode="DIV"/>
        <scalingTime>
          <value>2023-04-10T21:26:00.21Z</value>
        </scalingTime>
        <magnitudeHint>mb</magnitudeHint>
        <evaluationMode>automatic</evaluationMode>
      </amplitude>
      <amplitude publicID="quakeml:us.anss.org/amp/kr_drk_hhz_00/mb">
        <genericAmplitude>
          <value>9.85e-09</value>
        </genericAmplitude>
        <type>AMB</type>
        <unit>m</unit>
        <period>
          <value>1.0400</value>
        </period>
        <timeWindow>
          <begin>0.00</begin>
          <end>50.00</end>
          <reference>2023-04-10T21:25:04.1Z</reference>
        </timeWindow>
        <waveformID channelCode="HHZ" locationCode="00" networkCode="KR" stationCode="DRK"/>
        <scalingTime>
          <value>2023-04-10T21:25:25.48Z</value>
        </scalingTime>
        <magnitudeHint>mb</magnitudeHint>
        <evaluationMode>automatic</evaluationMode>
      </amplitude>
