<?xml version="1.0" encoding="UTF-8" standalone="no" ?>
<q:quakeml xmlns:q="http://quakeml.org/xmlns/quakeml/1.2" xmlns="http://quakeml.org/xmlns/bed/1.2" xmlns:anssevent="http://anss.org/xmlns/event/0.1" xmlns:catalog="http://anss.org/xmlns/catalog/0.1" xmlns:tensor="http://anss.org/xmlns/tensor/0.1">

  <eventParameters xmlns="http://quakeml.org/xmlns/bed/1.2" publicID="quakeml:us.anss.org/eventparameters/7000irp8/1675058471">
    <comment>
      <text>HYDRA - us</text>
    </comment>
    <event catalog:dataid="us7000irp8" catalog:datasource="us" catalog:eventid="7000irp8" catalog:eventsource="us" publicID="quakeml:us.anss.org/event/7000irp8">
      <description>
        <text>One person killed and another died from a heart attack, 37 people injured, 369 buildings destroyed and 2,548 damaged and power outages occurred in Duzce. Twenty-six people injured in Sakarya, 14 in Bolu, 10 in Zonguldak, 4 in Bursa and 2 in Istanbul.
</text>
        <type>felt report</type>
      </description>
      <description>
        <text>Düzce, Turkey</text>
        <type>Flinn-Engdahl region</type>
      </description>
      <description>
        <text>15.2 km (9.5 miles) W of Düzce, Düzce, Turkey (pop. 57739)
20.2 km (12.6 miles) ENE of Hendek, Sakarya, Turkey (pop. 35257)
26.6 km (16.5 miles) SSE of Kocaali, Sakarya, Turkey (pop. 15076)
30.0 km (18.7 miles) SSW of Akçakoca, Düzce, Turkey (pop. 35151)
31.0 km (19.3 miles) SSE of Karasu Mahallesi, Sakarya, Turkey (pop. 39508)
</text>
        <type>nearest cities</type>
      </description>
      <focalMechanism catalog:dataid="us_7000irp8_mww" catalog:datasource="us" publicID="quakeml:us.anss.org/focalmechanism/7000irp8/mww">
        <waveformID channelCode="HHZ" locationCode="--" networkCode="HT" stationCode="AGG" tensor:MTChanOffset="0" tensor:MTChanWaveformFit="0.82" tensor:MTChanWeight="1"/>
        <waveformID channelCode="HHZ" locationCode="--" networkCode="HU" stationCode="BEHE" tensor:MTChanOffset="0" tensor:MTChanWaveformFit="0.95" tensor:MTChanWeight="1"/>
        <waveformID channelCode="LHZ" locationCode="--" networkCode="MN" stationCode="BLY" tensor:MTChanOffset="0" tensor:MTChanWaveformFit="0.98" tensor:MTChanWeight="1"/>
        <waveformID channelCode="LHZ" locationCode="--" networkCode="WM" stationCode="CART" tensor:MTChanOffset="0" tensor:MTChanWaveformFit="0.83" tensor:MTChanWeight="1"/>
        <waveformID channelCode="LHZ" locationCode="--" networkCode="MN" stationCode="CEL" tensor:MTChanOffset="0" tensor:MTChanWaveformFit="0.88" tensor:MTChanWeight="1"/>
        <waveformID channelCode="LHZ" locationCode="--" networkCode="GR" stationCode="CLL" tensor:MTChanOffset="0" tensor:MTChanWaveformFit="0.93" tensor:MTChanWeight="1"/>
        <waveformID channelCode="BHZ" locationCode="--" networkCode="MN" stationCode="DIVS" tensor:MTChanOffset="0" tensor:MTChanWaveformFit="0.97" tensor:MTChanWeight="1"/>
        <waveformID channelCode="BHZ" locationCode="00" networkCode="II" stationCode="ESK" tensor:MTChanOffset="0" tensor:MTChanWaveformFit="0.92" tensor:MTChanWeight="1"/>
        <waveformID channelCode="LHZ" locationCode="--" networkCode="CH" stationCode="FUORN" tensor:MTChanOffset="0" tensor:MTChanWaveformFit="0.97" tensor:MTChanWeight="1"/>
        <waveformID channelCode="HHZ" locationCode="--" networkCode="IM" stationCode="GEC2A" tensor:MTChanOffset="0" tensor:MTChanWaveformFit="0.97" tensor:MTChanWeight="1"/>
        <waveformID channelCode="LHZ" locationCode="--" networkCode="GR" stationCode="GRA1" tensor:MTChanOffset="0" tensor:MTChanWaveformFit="0.96" tensor:MTChanWeight="1"/>
        <waveformID channelCode="HHZ" locationCode="--" networkCode="IV" stationCode="INTR" tensor:MTChanOffset="0" tensor:MTChanWaveformFit="0.95" tensor:MTChanWeight="1"/>
        <waveformID channelCode="HHZ" locationCode="--" networkCode="HL" stationCode="ITM" tensor:MTChanOffset="0" tensor:MTChanWaveformFit="0.91" tensor:MTChanWeight="1"/>
        <waveformID channelCode="BHZ" locationCode="00" networkCode="II" stationCode="KIV" tensor:MTChanOffset="0" tensor:MTChanWaveformFit="0.8" tensor:MTChanWeight="1"/>
        <waveformID channelCode="HHZ" locationCode="--" networkCode="TU" stationCode="KOPT" tensor:MTChanOffset="0" tensor:MTChanWaveformFit="0.96" tensor:MTChanWeight="1"/>
        <waveformID channelCode="HHZ" locationCode="--" networkCode="QK" stationCode="KSDD" tensor:MTChanOffset="0" tensor:MTChanWaveformFit="0.92" tensor:MTChanWeight="1"/>
        <waveformID channelCode="LHZ" locationCode="--" networkCode="WM" stationCode="MAHO" tensor:MTChanOffset="0" tensor:MTChanWaveformFit="0.94" tensor:MTChanWeight="1"/>
        <waveformID channelCode="LHZ" locationCode="--" networkCode="GE" stationCode="MATE" tensor:MTChanOffset="0" tensor:MTChanWaveformFit="0.95" tensor:MTChanWeight="1"/>
        <waveformID channelCode="LHZ" locationCode="--" networkCode="RO" stationCode="MLR" tensor:MTChanOffset="0" tensor:MTChanWaveformFit="0.97" tensor:MTChanWeight="1"/>
        <waveformID channelCode="LHZ" locationCode="--" networkCode="GE" stationCode="MTE" tensor:MTChanOffset="0" tensor:MTChanWaveformFit="0.75" tensor:MTChanWeight="1"/>
        <waveformID channelCode="HHZ" locationCode="--" networkCode="IV" stationCode="MURB" tensor:MTChanOffset="0" tensor:MTChanWaveformFit="0.86" tensor:MTChanWeight="1"/>
        <waveformID channelCode="HHZ" locationCode="--" networkCode="TU" stationCode="NEV" tensor:MTChanOffset="0" tensor:MTChanWaveformFit="0.95" tensor:MTChanWeight="1"/>
        <waveformID channelCode="BHZ" locationCode="--" networkCode="PL" stationCode="OJC" tensor:MTChanOffset="0" tensor:MTChanWaveformFit="0.87" tensor:MTChanWeight="1"/>
        <waveformID channelCode="HHZ" locationCode="--" networkCode="IV" stationCode="PAOL" tensor:MTChanOffset="0" tensor:MTChanWaveformFit="0.95" tensor:MTChanWeight="1"/>
        <waveformID channelCode="LHZ" locationCode="--" networkCode="MN" stationCode="PDG" tensor:MTChanOffset="0" tensor:MTChanWaveformFit="0.97" tensor:MTChanWeight="1"/>
        <waveformID channelCode="LHZ" locationCode="--" networkCode="GE" stationCode="PSZ" tensor:MTChanOffset="0" tensor:MTChanWaveformFit="0.98" tensor:MTChanWeight="1"/>
        <waveformID channelCode="LHZ" locationCode="--" networkCode="GE" stationCode="RGN" tensor:MTChanOffset="0" tensor:MTChanWaveformFit="0.84" tensor:MTChanWeight="1"/>
        <waveformID channelCode="LHZ" locationCode="--" networkCode="WM" stationCode="SFS" tensor:MTChanOffset="0" tensor:MTChanWaveformFit="0.82" tensor:MTChanWeight="1"/>
        <waveformID channelCode="LHZ" locationCode="--" networkCode="GE" stationCode="STU" tensor:MTChanOffset="0" tensor:MTChanWaveformFit="0.93" tensor:MTChanWeight="1"/>
        <waveformID channelCode="LHZ" locationCode="--" networkCode="MN" stationCode="TIP" tensor:MTChanOffset="0" tensor:MTChanWaveformFit="0.92" tensor:MTChanWeight="1"/>
        <waveformID channelCode="HHZ" locationCode="--" networkCode="MN" stationCode="TIR" tensor:MTChanOffset="0" tensor:MTChanWaveformFit="0.91" tensor:MTChanWeight="1"/>
        <waveformID channelCode="LHZ" locationCode="--" networkCode="GE" stationCode="TIRR" tensor:MTChanOffset="0" tensor:MTChanWaveformFit="0.91" tensor:MTChanWeight="1"/>
        <waveformID channelCode="HHZ" locationCode="--" networkCode="BE" stationCode="UCC" tensor:MTChanOffset="0" tensor:MTChanWaveformFit="0.77" tensor:MTChanWeight="1"/>
        <waveformID channelCode="BHZ" locationCode="--" networkCode="IV" stationCode="ZCCA" tensor:MTChanOffset="0" tensor:MTChanWaveformFit="0.92" tensor:MTChanWeight="1"/>
        <waveformID channelCode="HHZ" locationCode="--" networkCode="TU" stationCode="ILGA" tensor:MTChanOffset="0" tensor:MTChanWaveformFit="0.99" tensor:MTChanWeight="1"/>
        <momentTensor publicID="quakeml:us.anss.org/momenttensor/7000irp8/mww">
          <derivedOriginID>quakeml:us.anss.org/origin/7000irp8/mww</derivedOriginID>
          <momentMagnitudeID>quakeml:us.anss.org/magnitude/7000irp8/mww</momentMagnitudeID>
          <scalarMoment>
            <value>2.05e+18</value>
          </scalarMoment>
          <tensor>
            <Mrr>
              <value>-4.054e+17</value>
            </Mrr>
            <Mtt>
              <value>1.06e+18</value>
            </Mtt>
            <Mpp>
              <value>-6.545e+17</value>
            </Mpp>
            <Mrt>
              <value>7.253e+17</value>
            </Mrt>
            <Mrp>
              <value>8.061e+17</value>
            </Mrp>
            <Mtp>
              <value>-1.472e+18</value>
            </Mtp>
          </tensor>
          <doubleCouple>0.797</doubleCouple>
          <clvd>0.203</clvd>
          <sourceTimeFunction>
            <type>triangle</type>
            <duration>5.5</duration>
            <riseTime>2.75</riseTime>
            <decayTime>2.75</decayTime>
          </sourceTimeFunction>
        </momentTensor>
        <triggeringOriginID>quakeml:us.anss.org/origin/7000irp8/mww_trigger</triggeringOriginID>
        <nodalPlanes>
          <nodalPlane1>
            <strike>
              <value>160.21</value>
            </strike>
            <dip>
              <value>63.36</value>
            </dip>
            <rake>
              <value>-18.91</value>
            </rake>
          </nodalPlane1>
          <nodalPlane2>
            <strike>
              <value>258.94</value>
            </strike>
            <dip>
              <value>73.16</value>
            </dip>
            <rake>
              <value>-152.06</value>
            </rake>
          </nodalPlane2>
        </nodalPlanes>
        <principalAxes>
          <tAxis>
            <azimuth>
              <value>28</value>
            </azimuth>
            <plunge>
              <value>6</value>
            </plunge>
            <length>
              <value>1.9318e+18</value>
            </length>
          </tAxis>
          <pAxis>
            <azimuth>
              <value>122</value>
            </azimuth>
            <plunge>
              <value>31</value>
            </plunge>
            <length>
              <value>-2.14992e+18</value>
            </length>
          </pAxis>
          <nAxis>
            <azimuth>
              <value>288</value>
            </azimuth>
            <plunge>
              <value>58</value>
            </plunge>
            <length>
              <value>2.18125e+17</value>
            </length>
          </nAxis>
        </principalAxes>
        <evaluationMode>manual</evaluationMode>
        <evaluationStatus>reviewed</evaluationStatus>
        <creationInfo>
          <agencyID>us</agencyID>
          <agencyURI>smi:anss.org/metadata/agencyid/us</agencyURI>
          <creationTime>2022-11-23T01:29:46Z</creationTime>
        </creationInfo>
        <tensor:waveformFit xmlns="">0.92</tensor:waveformFit>
      </focalMechanism>
      <focalMechanism catalog:dataid="us_7000irp8_mwb" catalog:datasource="us" publicID="quakeml:us.anss.org/focalmechanism/7000irp8/mwb">
        <waveformID channelCode="LHZ" locationCode="00" networkCode="WI" stationCode="ABD" tensor:MTChanOffset="2" tensor:MTChanWaveformFit="0.85" tensor:MTChanWeight="1"/>
        <waveformID channelCode="LHZ" locationCode="00" networkCode="IU" stationCode="ADK" tensor:MTChanOffset="1" tensor:MTChanWaveformFit="0.8" tensor:MTChanWeight="1"/>
        <waveformID channelCode="LHZ" locationCode="10" networkCode="II" stationCode="ASCN" tensor:MTChanOffset="5" tensor:MTChanWaveformFit="0.64" tensor:MTChanWeight="1"/>
        <waveformID channelCode="LHZ" locationCode="--" networkCode="WM" stationCode="AVE" tensor:MTChanOffset="3" tensor:MTChanWaveformFit="0.87" tensor:MTChanWeight="1"/>
        <waveformID channelCode="LHZ" locationCode="00" networkCode="IU" stationCode="BBSR" tensor:MTChanOffset="1" tensor:MTChanWaveformFit="0.85" tensor:MTChanWeight="1"/>
        <waveformID channelCode="LHZ" locationCode="10" networkCode="IU" stationCode="BILL" tensor:MTChanOffset="1" tensor:MTChanWaveformFit="0.86" tensor:MTChanWeight="1"/>
        <waveformID channelCode="LHZ" locationCode="00" networkCode="WI" stationCode="BIM" tensor:MTChanOffset="1" tensor:MTChanWaveformFit="0.82" tensor:MTChanWeight="1"/>
        <waveformID channelCode="LHZ" locationCode="00" networkCode="IC" stationCode="BJT" tensor:MTChanOffset="1" tensor:MTChanWaveformFit="0.82" tensor:MTChanWeight="1"/>
        <waveformID channelCode="LHZ" locationCode="--" networkCode="GE" stationCode="BKB" tensor:MTChanOffset="4" tensor:MTChanWaveformFit="0.69" tensor:MTChanWeight="1"/>
        <waveformID channelCode="LHZ" locationCode="00" networkCode="US" stationCode="CBN" tensor:MTChanOffset="-1" tensor:MTChanWaveformFit="0.77" tensor:MTChanWeight="1"/>
        <waveformID channelCode="BHZ" locationCode="00" networkCode="GT" stationCode="DBIC" tensor:MTChanOffset="4" tensor:MTChanWaveformFit="0.85" tensor:MTChanWeight="1"/>
        <waveformID channelCode="LHZ" locationCode="00" networkCode="II" stationCode="DGAR" tensor:MTChanOffset="5" tensor:MTChanWaveformFit="0.61" tensor:MTChanWeight="1"/>
        <waveformID channelCode="LHZ" locationCode="00" networkCode="IU" stationCode="DWPF" tensor:MTChanOffset="1" tensor:MTChanWaveformFit="0.78" tensor:MTChanWeight="1"/>
        <waveformID channelCode="LHZ" locationCode="00" networkCode="II" stationCode="FFC" tensor:MTChanOffset="-1" tensor:MTChanWaveformFit="0.76" tensor:MTChanWeight="1"/>
        <waveformID channelCode="LHZ" locationCode="00" networkCode="CU" stationCode="GRTK" tensor:MTChanOffset="2" tensor:MTChanWaveformFit="0.61" tensor:MTChanWeight="1"/>
        <waveformID channelCode="LHZ" locationCode="00" networkCode="IC" stationCode="HIA" tensor:MTChanOffset="0" tensor:MTChanWaveformFit="0.84" tensor:MTChanWeight="1"/>
        <waveformID channelCode="LHZ" locationCode="--" networkCode="GE" stationCode="HMDM" tensor:MTChanOffset="5" tensor:MTChanWaveformFit="0.73" tensor:MTChanWeight="1"/>
        <waveformID channelCode="HHZ" locationCode="--" networkCode="CN" stationCode="HSNB" tensor:MTChanOffset="1" tensor:MTChanWaveformFit="0.93" tensor:MTChanWeight="1"/>
        <waveformID channelCode="HHZ" locationCode="--" networkCode="CN" stationCode="ILON" tensor:MTChanOffset="-2" tensor:MTChanWaveformFit="0.75" tensor:MTChanWeight="1"/>
        <waveformID channelCode="LHZ" locationCode="00" networkCode="G" stationCode="IVI" tensor:MTChanOffset="2" tensor:MTChanWaveformFit="0.94" tensor:MTChanWeight="1"/>
        <waveformID channelCode="BHZ" locationCode="--" networkCode="JP" stationCode="JKA" tensor:MTChanOffset="1" tensor:MTChanWaveformFit="0.79" tensor:MTChanWeight="1"/>
        <waveformID channelCode="BHZ" locationCode="--" networkCode="JP" stationCode="JMN" tensor:MTChanOffset="0" tensor:MTChanWaveformFit="0.71" tensor:MTChanWeight="1"/>
        <waveformID channelCode="BHZ" locationCode="--" networkCode="JP" stationCode="JOW" tensor:MTChanOffset="1" tensor:MTChanWaveformFit="0.73" tensor:MTChanWeight="1"/>
        <waveformID channelCode="BHZ" locationCode="--" networkCode="JP" stationCode="JTM" tensor:MTChanOffset="1" tensor:MTChanWaveformFit="0.74" tensor:MTChanWeight="1"/>
        <waveformID channelCode="BHZ" locationCode="--" networkCode="JP" stationCode="JTU" tensor:MTChanOffset="2" tensor:MTChanWaveformFit="0.72" tensor:MTChanWeight="1"/>
        <waveformID channelCode="BHZ" locationCode="--" networkCode="IU" stationCode="KBL" tensor:MTChanOffset="0" tensor:MTChanWaveformFit="0.73" tensor:MTChanWeight="1"/>
        <waveformID channelCode="LHZ" locationCode="00" networkCode="IU" stationCode="KBS" tensor:MTChanOffset="3" tensor:MTChanWaveformFit="0.64" tensor:MTChanWeight="1"/>
        <waveformID channelCode="BHZ" locationCode="--" networkCode="KR" stationCode="KDJ" tensor:MTChanOffset="1" tensor:MTChanWaveformFit="0.81" tensor:MTChanWeight="1"/>
        <waveformID channelCode="LHZ" locationCode="--" networkCode="TW" stationCode="KMNB" tensor:MTChanOffset="3" tensor:MTChanWaveformFit="0.72" tensor:MTChanWeight="1"/>
        <waveformID channelCode="BHZ" locationCode="--" networkCode="IM" stationCode="KS31" tensor:MTChanOffset="2" tensor:MTChanWaveformFit="0.61" tensor:MTChanWeight="1"/>
        <waveformID channelCode="LHZ" locationCode="--" networkCode="MM" stationCode="KTN" tensor:MTChanOffset="2" tensor:MTChanWaveformFit="0.83" tensor:MTChanWeight="1"/>
        <waveformID channelCode="LHZ" locationCode="--" networkCode="GE" stationCode="LHMI" tensor:MTChanOffset="6" tensor:MTChanWaveformFit="0.79" tensor:MTChanWeight="1"/>
        <waveformID channelCode="LHZ" locationCode="00" networkCode="IU" stationCode="LSZ" tensor:MTChanOffset="3" tensor:MTChanWaveformFit="0.71" tensor:MTChanWeight="1"/>
        <waveformID channelCode="LHZ" locationCode="00" networkCode="IU" stationCode="MAKZ" tensor:MTChanOffset="1" tensor:MTChanWaveformFit="0.77" tensor:MTChanWeight="1"/>
        <waveformID channelCode="LHZ" locationCode="10" networkCode="II" stationCode="MBAR" tensor:MTChanOffset="4" tensor:MTChanWaveformFit="0.75" tensor:MTChanWeight="1"/>
        <waveformID channelCode="BHZ" locationCode="--" networkCode="LX" stationCode="MESJ" tensor:MTChanOffset="1" tensor:MTChanWaveformFit="0.74" tensor:MTChanWeight="1"/>
        <waveformID channelCode="LHZ" locationCode="00" networkCode="G" stationCode="MPG" tensor:MTChanOffset="2" tensor:MTChanWaveformFit="0.92" tensor:MTChanWeight="1"/>
        <waveformID channelCode="BHZ" locationCode="--" networkCode="IM" stationCode="PEA0B" tensor:MTChanOffset="2" tensor:MTChanWaveformFit="0.75" tensor:MTChanWeight="1"/>
        <waveformID channelCode="LHZ" locationCode="00" networkCode="US" stationCode="PKME" tensor:MTChanOffset="1" tensor:MTChanWaveformFit="0.88" tensor:MTChanWeight="1"/>
        <waveformID channelCode="LHZ" locationCode="00" networkCode="IC" stationCode="QIZ" tensor:MTChanOffset="2" tensor:MTChanWaveformFit="0.8" tensor:MTChanWeight="1"/>
        <waveformID channelCode="LHZ" locationCode="00" networkCode="II" stationCode="SACV" tensor:MTChanOffset="5" tensor:MTChanWaveformFit="0.85" tensor:MTChanWeight="1"/>
        <waveformID channelCode="HHZ" locationCode="--" networkCode="LD" stationCode="SDMD" tensor:MTChanOffset="-1" tensor:MTChanWaveformFit="0.67" tensor:MTChanWeight="1"/>
        <waveformID channelCode="LHZ" locationCode="00" networkCode="II" stationCode="SHEL" tensor:MTChanOffset="4" tensor:MTChanWaveformFit="0.84" tensor:MTChanWeight="1"/>
        <waveformID channelCode="LHZ" locationCode="00" networkCode="IU" stationCode="SJG" tensor:MTChanOffset="1" tensor:MTChanWaveformFit="0.87" tensor:MTChanWeight="1"/>
        <waveformID channelCode="LHZ" locationCode="--" networkCode="RM" stationCode="SLV" tensor:MTChanOffset="1" tensor:MTChanWaveformFit="0.8" tensor:MTChanWeight="1"/>
        <waveformID channelCode="BHZ" locationCode="00" networkCode="CM" stationCode="SMAR" tensor:MTChanOffset="-1" tensor:MTChanWaveformFit="0.64" tensor:MTChanWeight="1"/>
        <waveformID channelCode="BHZ" locationCode="--" networkCode="AT" stationCode="SMY" tensor:MTChanOffset="1" tensor:MTChanWaveformFit="0.61" tensor:MTChanWeight="1"/>
        <waveformID channelCode="LHZ" locationCode="--" networkCode="GE" stationCode="TOLI2" tensor:MTChanOffset="2" tensor:MTChanWaveformFit="0.75" tensor:MTChanWeight="1"/>
        <waveformID channelCode="LHZ" locationCode="00" networkCode="IU" stationCode="ULN" tensor:MTChanOffset="1" tensor:MTChanWaveformFit="0.9" tensor:MTChanWeight="1"/>
        <waveformID channelCode="BHZ" locationCode="--" networkCode="IM" stationCode="USA0B" tensor:MTChanOffset="2" tensor:MTChanWaveformFit="0.75" tensor:MTChanWeight="1"/>
